CCSDS_OMM_VERS = 2.0
CREATION_DATE  = 
ORIGINATOR     = 

OBJECT_NAME    = IDEFIX & ARIANE 42P R/B
OBJECT_ID      = 2002-021B
CENTER_NAME    = EARTH
REF_FRAME      = TEME
TIME_SYSTEM    = UTC
MEAN_ELEMENT_THEORY = SGP/SGP4

EPOCH          = 2025-12-30T13:17:03.322752
MEAN_MOTION    = 14.30965410
ECCENTRICITY   = .00125446
INCLINATION    = 98.5806
RA_OF_ASC_NODE = 299.0151
ARG_OF_PERICENTER = 35.2835
MEAN_ANOMALY   = 324.9176

EPHEMERIS_TYPE = 0
CLASSIFICATION_TYPE = U
NORAD_CAT_ID   = 27422
ELEMENT_SET_NO = 999
REV_AT_EPOCH   = 23413
BSTAR          = .23485717E-3
MEAN_MOTION_DOT = .574E-5
MEAN_MOTION_DDOT = 0

CCSDS_OMM_VERS = 2.0
CREATION_DATE  = 
ORIGINATOR     = 

OBJECT_NAME    = AQUA
OBJECT_ID      = 2002-022A
CENTER_NAME    = EARTH
REF_FRAME      = TEME
TIME_SYSTEM    = UTC
MEAN_ELEMENT_THEORY = SGP/SGP4

EPOCH          = 2025-12-30T00:14:04.259328
MEAN_MOTION    = 14.61775989
ECCENTRICITY   = .00019018
INCLINATION    = 98.4060
RA_OF_ASC_NODE = 325.1715
ARG_OF_PERICENTER = 96.2534
MEAN_ANOMALY   = 338.9718

EPHEMERIS_TYPE = 0
CLASSIFICATION_TYPE = U
NORAD_CAT_ID   = 27424
ELEMENT_SET_NO = 999
REV_AT_EPOCH   = 25855
BSTAR          = .36396554E-3
MEAN_MOTION_DOT = .1767E-4
MEAN_MOTION_DDOT = 0

CCSDS_OMM_VERS = 2.0
CREATION_DATE  = 
ORIGINATOR     = 

OBJECT_NAME    = CZ-4B R/B
OBJECT_ID      = 2002-024C
CENTER_NAME    = EARTH
REF_FRAME      = TEME
TIME_SYSTEM    = UTC
MEAN_ELEMENT_THEORY = SGP/SGP4

EPOCH          = 2025-12-30T09:21:31.605696
MEAN_MOTION    = 14.14531970
ECCENTRICITY   = .00495826
INCLINATION    = 98.8974
RA_OF_ASC_NODE = 53.0979
ARG_OF_PERICENTER = 218.9889
MEAN_ANOMALY   = 151.5682

EPHEMERIS_TYPE = 0
CLASSIFICATION_TYPE = U
NORAD_CAT_ID   = 27432
ELEMENT_SET_NO = 999
REV_AT_EPOCH   = 21944
BSTAR          = .84868234E-4
MEAN_MOTION_DOT = .12E-5
MEAN_MOTION_DDOT = 0

CCSDS_OMM_VERS = 2.0
CREATION_DATE  = 
ORIGINATOR     = 

OBJECT_NAME    = MIDORI II (ADEOS-II)
OBJECT_ID      = 2002-056A
CENTER_NAME    = EARTH
REF_FRAME      = TEME
TIME_SYSTEM    = UTC
MEAN_ELEMENT_THEORY = SGP/SGP4

EPOCH          = 2025-12-30T10:15:38.167776
MEAN_MOTION    = 14.29220312
ECCENTRICITY   = .00010819
INCLINATION    = 98.7660
RA_OF_ASC_NODE = 317.4788
ARG_OF_PERICENTER = 139.7567
MEAN_ANOMALY   = 220.3695

EPHEMERIS_TYPE = 0
CLASSIFICATION_TYPE = U
NORAD_CAT_ID   = 27597
ELEMENT_SET_NO = 999
REV_AT_EPOCH   = 20040
BSTAR          = .24884203E-3
MEAN_MOTION_DOT = .587E-5
MEAN_MOTION_DDOT = 0

CCSDS_OMM_VERS = 2.0
CREATION_DATE  = 
ORIGINATOR     = 

OBJECT_NAME    = H-2A R/B
OBJECT_ID      = 2002-056E
CENTER_NAME    = EARTH
REF_FRAME      = TEME
TIME_SYSTEM    = UTC
MEAN_ELEMENT_THEORY = SGP/SGP4

EPOCH          = 2025-12-30T11:40:57.514656
MEAN_MOTION    = 14.33694539
ECCENTRICITY   = .00705662
INCLINATION    = 98.3089
RA_OF_ASC_NODE = 322.5393
ARG_OF_PERICENTER = 8.8076
MEAN_ANOMALY   = 101.2910

EPHEMERIS_TYPE = 0
CLASSIFICATION_TYPE = U
NORAD_CAT_ID   = 27601
ELEMENT_SET_NO = 999
REV_AT_EPOCH   = 20419
BSTAR          = .27122841E-3
MEAN_MOTION_DOT = .732E-5
MEAN_MOTION_DDOT = 0

CCSDS_OMM_VERS = 2.0
CREATION_DATE  = 
ORIGINATOR     = 

OBJECT_NAME    = CZ-4B R/B
OBJECT_ID      = 2003-049C
CENTER_NAME    = EARTH
REF_FRAME      = TEME
TIME_SYSTEM    = UTC
MEAN_ELEMENT_THEORY = SGP/SGP4

EPOCH          = 2025-12-30T13:05:11.278752
MEAN_MOTION    = 14.54929198
ECCENTRICITY   = .00493617
INCLINATION    = 98.6802
RA_OF_ASC_NODE = 351.7830
ARG_OF_PERICENTER = 82.8620
MEAN_ANOMALY   = 277.8185

EPHEMERIS_TYPE = 0
CLASSIFICATION_TYPE = U
NORAD_CAT_ID   = 28059
ELEMENT_SET_NO = 999
REV_AT_EPOCH   = 17654
BSTAR          = .19261977E-3
MEAN_MOTION_DOT = .791E-5
MEAN_MOTION_DDOT = 0

CCSDS_OMM_VERS = 2.0
CREATION_DATE  = 
ORIGINATOR     = 

OBJECT_NAME    = CZ-2C R/B
OBJECT_ID      = 2004-012C
CENTER_NAME    = EARTH
REF_FRAME      = TEME
TIME_SYSTEM    = UTC
MEAN_ELEMENT_THEORY = SGP/SGP4

EPOCH          = 2025-12-30T14:46:05.391552
MEAN_MOTION    = 15.56978752
ECCENTRICITY   = .00166236
INCLINATION    = 97.7391
RA_OF_ASC_NODE = 58.7293
ARG_OF_PERICENTER = 201.3585
MEAN_ANOMALY   = 158.6978

EPHEMERIS_TYPE = 0
CLASSIFICATION_TYPE = U
NORAD_CAT_ID   = 28222
ELEMENT_SET_NO = 999
REV_AT_EPOCH   = 19350
BSTAR          = .77374413E-3
MEAN_MOTION_DOT = .56331E-3
MEAN_MOTION_DDOT = 0

CCSDS_OMM_VERS = 2.0
CREATION_DATE  = 
ORIGINATOR     = 

OBJECT_NAME    = SL-16 R/B
OBJECT_ID      = 2004-021B
CENTER_NAME    = EARTH
REF_FRAME      = TEME
TIME_SYSTEM    = UTC
MEAN_ELEMENT_THEORY = SGP/SGP4

EPOCH          = 2025-12-30T10:35:29.984928
MEAN_MOTION    = 14.14583382
ECCENTRICITY   = .00042906
INCLINATION    = 71.0007
RA_OF_ASC_NODE = 17.8165
ARG_OF_PERICENTER = 170.0212
MEAN_ANOMALY   = 190.0997

EPHEMERIS_TYPE = 0
CLASSIFICATION_TYPE = U
NORAD_CAT_ID   = 28353
ELEMENT_SET_NO = 999
REV_AT_EPOCH   = 11304
BSTAR          = .23150461E-3
MEAN_MOTION_DOT = .397E-5
MEAN_MOTION_DDOT = 0

CCSDS_OMM_VERS = 2.0
CREATION_DATE  = 
ORIGINATOR     = 

OBJECT_NAME    = CZ-4B R/B
OBJECT_ID      = 2004-035C
CENTER_NAME    = EARTH
REF_FRAME      = TEME
TIME_SYSTEM    = UTC
MEAN_ELEMENT_THEORY = SGP/SGP4

EPOCH          = 2025-12-30T15:23:54.002400
MEAN_MOTION    = 15.27693614
ECCENTRICITY   = .00321486
INCLINATION    = 97.3596
RA_OF_ASC_NODE = 34.7488
ARG_OF_PERICENTER = 211.0437
MEAN_ANOMALY   = 148.8904

EPHEMERIS_TYPE = 0
CLASSIFICATION_TYPE = U
NORAD_CAT_ID   = 28415
ELEMENT_SET_NO = 999
REV_AT_EPOCH   = 16936
BSTAR          = .46838904E-3
MEAN_MOTION_DOT = .12803E-3
MEAN_MOTION_DDOT = 0

CCSDS_OMM_VERS = 2.0
CREATION_DATE  = 
ORIGINATOR     = 

OBJECT_NAME    = CZ-2C R/B
OBJECT_ID      = 2004-046B
CENTER_NAME    = EARTH
REF_FRAME      = TEME
TIME_SYSTEM    = UTC
MEAN_ELEMENT_THEORY = SGP/SGP4

EPOCH          = 2025-12-30T15:05:43.413216
MEAN_MOTION    = 14.26953835
ECCENTRICITY   = .01395539
INCLINATION    = 98.1998
RA_OF_ASC_NODE = 278.8961
ARG_OF_PERICENTER = 359.6130
MEAN_ANOMALY   = 0.4922

EPHEMERIS_TYPE = 0
CLASSIFICATION_TYPE = U
NORAD_CAT_ID   = 28480
ELEMENT_SET_NO = 999
REV_AT_EPOCH   = 9865
BSTAR          = .21025492E-3
MEAN_MOTION_DOT = .525E-5
MEAN_MOTION_DDOT = 0

CCSDS_OMM_VERS = 2.0
CREATION_DATE  = 
ORIGINATOR     = 

OBJECT_NAME    = ARIANE 5 R/B
OBJECT_ID      = 2004-049H
CENTER_NAME    = EARTH
REF_FRAME      = TEME
TIME_SYSTEM    = UTC
MEAN_ELEMENT_THEORY = SGP/SGP4

EPOCH          = 2025-12-30T10:34:43.084416
MEAN_MOTION    = 14.85065886
ECCENTRICITY   = .00837509
INCLINATION    = 98.2526
RA_OF_ASC_NODE = 165.3582
ARG_OF_PERICENTER = 214.8518
MEAN_ANOMALY   = 144.7195

EPHEMERIS_TYPE = 0
CLASSIFICATION_TYPE = U
NORAD_CAT_ID   = 28499
ELEMENT_SET_NO = 999
REV_AT_EPOCH   = 13551
BSTAR          = .24863191E-3
MEAN_MOTION_DOT = .2197E-4
MEAN_MOTION_DDOT = 0

CCSDS_OMM_VERS = 2.0
CREATION_DATE  = 
ORIGINATOR     = 

OBJECT_NAME    = CZ-2D R/B
OBJECT_ID      = 2005-024B
CENTER_NAME    = EARTH
REF_FRAME      = TEME
TIME_SYSTEM    = UTC
MEAN_ELEMENT_THEORY = SGP/SGP4

EPOCH          = 2025-12-30T13:29:15.784800
MEAN_MOTION    = 15.54332185
ECCENTRICITY   = .00030439
INCLINATION    = 97.3628
RA_OF_ASC_NODE = 12.4892
ARG_OF_PERICENTER = 281.8771
MEAN_ANOMALY   = 78.2142

EPHEMERIS_TYPE = 0
CLASSIFICATION_TYPE = U
NORAD_CAT_ID   = 28738
ELEMENT_SET_NO = 999
REV_AT_EPOCH   = 12902
BSTAR          = .66849086E-3
MEAN_MOTION_DOT = .43819E-3
MEAN_MOTION_DDOT = 0

