IDEFIX & ARIANE 42P R/B 
1 27422U 02021B   25364.55351068  .00000574  00000+0  23486-3 0  9996
2 27422  98.5806 299.0151 0012544  35.2835 324.9176 14.30965410234132
AQUA                    
1 27424U 02022A   25364.00977152  .00001767  00000+0  36397-3 0  9997
2 27424  98.4060 325.1715 0001901  96.2534 338.9718 14.61775989258553
CZ-4B R/B               
1 27432U 02024C   25364.38994914  .00000120  00000+0  84868-4 0  9993
2 27432  98.8974  53.0979 0049582 218.9889 151.5682 14.14531970219444
MIDORI II (ADEOS-II)    
1 27597U 02056A   25364.42752509  .00000587  00000+0  24884-3 0  9995
2 27597  98.7660 317.4788 0001081 139.7567 220.3695 14.29220312200403
H-2A R/B                
1 27601U 02056E   25364.48677679  .00000732  00000+0  27123-3 0  9992
2 27601  98.3089 322.5393 0070566   8.8076 101.2910 14.33694539204192
CZ-4B R/B               
1 28059U 03049C   25364.54526943  .00000791  00000+0  19262-3 0  9997
2 28059  98.6802 351.7830 0049361  82.8620 277.8185 14.54929198176548
CZ-2C R/B               
1 28222U 04012C   25364.61534018  .00056331  00000+0  77374-3 0  9999
2 28222  97.7391  58.7293 0016623 201.3585 158.6978 15.56978752193507
SL-16 R/B               
1 28353U 04021B   25364.44131927  .00000397  00000+0  23150-3 0  9991
2 28353  71.0007  17.8165 0004290 170.0212 190.0997 14.14583382113047
CZ-4B R/B               
1 28415U 04035C   25364.64159725  .00012803  00000+0  46839-3 0  9997
2 28415  97.3596  34.7488 0032148 211.0437 148.8904 15.27693614169364
CZ-2C R/B               
1 28480U 04046B   25364.62897469  .00000525  00000+0  21025-3 0  9991
2 28480  98.1998 278.8961 0139553 359.6130   0.4922 14.26953835 98653
ARIANE 5 R/B            
1 28499U 04049H   25364.44077644  .00002197  00000+0  24863-3 0  9999
2 28499  98.2526 165.3582 0083750 214.8518 144.7195 14.85065886135515
CZ-2D R/B               
1 28738U 05024B   25364.56198825  .00043819  00000+0  66849-3 0  9993
2 28738  97.3628  12.4892 0003043 281.8771  78.2142 15.54332185129020
